STARLINK-36715          
1 67716U 26025Z   26050.50003471 -.01644576  78447-3 -41871-2 0  9996
2 67716  97.2720 161.1551 0001255  62.1821 345.6664 15.95514063  2981
STARLINK-36385          
1 67717U 26025AA  26050.50003471 -.01657512  78861-3 -44237-2 0  9990
2 67717  97.2720 161.1463 0001326  62.7311 324.3320 15.94629371  2984
CZ-2F DEB               
1 67718U 26024E   26050.48301247  .00210012  00000+0  41516-2 0  9999
2 67718  50.3133 107.6721 0257725 208.4098 150.2603 15.17571123  1864
CZ-2F DEB               
1 67719U 26024F   26050.50472881  .00153329  00000+0  39036-2 0  9997
2 67719  49.7904 109.0640 0331348 198.6052 160.2536 14.97952095  1519
CZ-2F DEB               
1 67720U 26024G   26050.45993420  .00151168  00000+0  39510-2 0  9996
2 67720  49.8296 109.5232 0342140 194.9627 164.0989 14.95269717  1825
2026-027A               
1 67746U 26027A   26050.50416449  .00008331  00000+0  42044-3 0  9994
2 67746  97.4884 179.7170 0009268 262.2524  97.7657 15.17332724  1100
2026-027B               
1 67747U 26027B   26050.50368169  .00008355  00000+0  42040-3 0  9992
2 67747  97.4879 179.7170 0009418 264.8735  95.1424 15.17434188  1105
2026-027C               
1 67748U 26027C   26050.50303645  .00006008  00000+0  30231-3 0  9993
2 67748  97.4890 179.7191 0009796 267.9929  92.0183 15.17551085  1104
2026-027D               
1 67749U 26027D   26050.50230435  .00009709  00000+0  48374-3 0  9998
2 67749  97.4886 179.7197 0009650 272.4505  87.5624 15.17733190  1058
2026-027E               
1 67750U 26027E   26050.50224538  .00008413  00000+0  41970-3 0  9993
2 67750  97.4896 179.7209 0008782 274.3150  85.7080 15.17737858  1104
2026-027F               
1 67751U 26027F   26050.50194119  .00013594  00000+0  67346-3 0  9996
2 67751  97.4898 179.7216 0009942 273.2736  86.7360 15.17841321  1105
2026-027G               
1 67752U 26027G   26050.50184552  .00009004  00000+0  44777-3 0  9991
2 67752  97.4891 179.7209 0009115 276.3153  83.7043 15.17826130  1106
