CCSDS_OMM_VERS = 2.0
CREATION_DATE  = 
ORIGINATOR     = 

OBJECT_NAME    = STARLINK-36715
OBJECT_ID      = 2026-025Z
CENTER_NAME    = EARTH
REF_FRAME      = TEME
TIME_SYSTEM    = UTC
MEAN_ELEMENT_THEORY = SGP/SGP4

EPOCH          = 2026-02-19T12:00:02.998944
MEAN_MOTION    = 15.95514063
ECCENTRICITY   = .0001255
INCLINATION    = 97.2720
RA_OF_ASC_NODE = 161.1551
ARG_OF_PERICENTER = 62.1821
MEAN_ANOMALY   = 345.6664

EPHEMERIS_TYPE = 0
CLASSIFICATION_TYPE = U
NORAD_CAT_ID   = 67716
ELEMENT_SET_NO = 999
REV_AT_EPOCH   = 298
BSTAR          = -.41871E-2
MEAN_MOTION_DOT = -.1644576E-1
MEAN_MOTION_DDOT = .78447E-3

CCSDS_OMM_VERS = 2.0
CREATION_DATE  = 
ORIGINATOR     = 

OBJECT_NAME    = STARLINK-36385
OBJECT_ID      = 2026-025AA
CENTER_NAME    = EARTH
REF_FRAME      = TEME
TIME_SYSTEM    = UTC
MEAN_ELEMENT_THEORY = SGP/SGP4

EPOCH          = 2026-02-19T12:00:02.998944
MEAN_MOTION    = 15.94629371
ECCENTRICITY   = .0001326
INCLINATION    = 97.2720
RA_OF_ASC_NODE = 161.1463
ARG_OF_PERICENTER = 62.7311
MEAN_ANOMALY   = 324.3320

EPHEMERIS_TYPE = 0
CLASSIFICATION_TYPE = U
NORAD_CAT_ID   = 67717
ELEMENT_SET_NO = 999
REV_AT_EPOCH   = 298
BSTAR          = -.44237E-2
MEAN_MOTION_DOT = -.1657512E-1
MEAN_MOTION_DDOT = .78861E-3

CCSDS_OMM_VERS = 2.0
CREATION_DATE  = 
ORIGINATOR     = 

OBJECT_NAME    = CZ-2F DEB
OBJECT_ID      = 2026-024E
CENTER_NAME    = EARTH
REF_FRAME      = TEME
TIME_SYSTEM    = UTC
MEAN_ELEMENT_THEORY = SGP/SGP4

EPOCH          = 2026-02-19T11:35:32.277408
MEAN_MOTION    = 15.17571123
ECCENTRICITY   = .0257725
INCLINATION    = 50.3133
RA_OF_ASC_NODE = 107.6721
ARG_OF_PERICENTER = 208.4098
MEAN_ANOMALY   = 150.2603

EPHEMERIS_TYPE = 0
CLASSIFICATION_TYPE = U
NORAD_CAT_ID   = 67718
ELEMENT_SET_NO = 999
REV_AT_EPOCH   = 186
BSTAR          = .41516E-2
MEAN_MOTION_DOT = .210012E-2
MEAN_MOTION_DDOT = 0

CCSDS_OMM_VERS = 2.0
CREATION_DATE  = 
ORIGINATOR     = 

OBJECT_NAME    = CZ-2F DEB
OBJECT_ID      = 2026-024F
CENTER_NAME    = EARTH
REF_FRAME      = TEME
TIME_SYSTEM    = UTC
MEAN_ELEMENT_THEORY = SGP/SGP4

EPOCH          = 2026-02-19T12:06:48.569184
MEAN_MOTION    = 14.97952095
ECCENTRICITY   = .0331348
INCLINATION    = 49.7904
RA_OF_ASC_NODE = 109.0640
ARG_OF_PERICENTER = 198.6052
MEAN_ANOMALY   = 160.2536

EPHEMERIS_TYPE = 0
CLASSIFICATION_TYPE = U
NORAD_CAT_ID   = 67719
ELEMENT_SET_NO = 999
REV_AT_EPOCH   = 151
BSTAR          = .39036E-2
MEAN_MOTION_DOT = .153329E-2
MEAN_MOTION_DDOT = 0

CCSDS_OMM_VERS = 2.0
CREATION_DATE  = 
ORIGINATOR     = 

OBJECT_NAME    = CZ-2F DEB
OBJECT_ID      = 2026-024G
CENTER_NAME    = EARTH
REF_FRAME      = TEME
TIME_SYSTEM    = UTC
MEAN_ELEMENT_THEORY = SGP/SGP4

EPOCH          = 2026-02-19T11:02:18.314880
MEAN_MOTION    = 14.95269717
ECCENTRICITY   = .034214
INCLINATION    = 49.8296
RA_OF_ASC_NODE = 109.5232
ARG_OF_PERICENTER = 194.9627
MEAN_ANOMALY   = 164.0989

EPHEMERIS_TYPE = 0
CLASSIFICATION_TYPE = U
NORAD_CAT_ID   = 67720
ELEMENT_SET_NO = 999
REV_AT_EPOCH   = 182
BSTAR          = .3951E-2
MEAN_MOTION_DOT = .151168E-2
MEAN_MOTION_DDOT = 0

CCSDS_OMM_VERS = 2.0
CREATION_DATE  = 
ORIGINATOR     = 

OBJECT_NAME    = 2026-027A
OBJECT_ID      = 2026-027A
CENTER_NAME    = EARTH
REF_FRAME      = TEME
TIME_SYSTEM    = UTC
MEAN_ELEMENT_THEORY = SGP/SGP4

EPOCH          = 2026-02-19T12:05:59.811936
MEAN_MOTION    = 15.17332724
ECCENTRICITY   = .0009268
INCLINATION    = 97.4884
RA_OF_ASC_NODE = 179.7170
ARG_OF_PERICENTER = 262.2524
MEAN_ANOMALY   = 97.7657

EPHEMERIS_TYPE = 0
CLASSIFICATION_TYPE = U
NORAD_CAT_ID   = 67746
ELEMENT_SET_NO = 999
REV_AT_EPOCH   = 110
BSTAR          = .42044E-3
MEAN_MOTION_DOT = .8331E-4
MEAN_MOTION_DDOT = 0

CCSDS_OMM_VERS = 2.0
CREATION_DATE  = 
ORIGINATOR     = 

OBJECT_NAME    = 2026-027B
OBJECT_ID      = 2026-027B
CENTER_NAME    = EARTH
REF_FRAME      = TEME
TIME_SYSTEM    = UTC
MEAN_ELEMENT_THEORY = SGP/SGP4

EPOCH          = 2026-02-19T12:05:18.098016
MEAN_MOTION    = 15.17434188
ECCENTRICITY   = .0009418
INCLINATION    = 97.4879
RA_OF_ASC_NODE = 179.7170
ARG_OF_PERICENTER = 264.8735
MEAN_ANOMALY   = 95.1424

EPHEMERIS_TYPE = 0
CLASSIFICATION_TYPE = U
NORAD_CAT_ID   = 67747
ELEMENT_SET_NO = 999
REV_AT_EPOCH   = 110
BSTAR          = .4204E-3
MEAN_MOTION_DOT = .8355E-4
MEAN_MOTION_DDOT = 0

CCSDS_OMM_VERS = 2.0
CREATION_DATE  = 
ORIGINATOR     = 

OBJECT_NAME    = 2026-027C
OBJECT_ID      = 2026-027C
CENTER_NAME    = EARTH
REF_FRAME      = TEME
TIME_SYSTEM    = UTC
MEAN_ELEMENT_THEORY = SGP/SGP4

EPOCH          = 2026-02-19T12:04:22.349280
MEAN_MOTION    = 15.17551085
ECCENTRICITY   = .0009796
INCLINATION    = 97.4890
RA_OF_ASC_NODE = 179.7191
ARG_OF_PERICENTER = 267.9929
MEAN_ANOMALY   = 92.0183

EPHEMERIS_TYPE = 0
CLASSIFICATION_TYPE = U
NORAD_CAT_ID   = 67748
ELEMENT_SET_NO = 999
REV_AT_EPOCH   = 110
BSTAR          = .30231E-3
MEAN_MOTION_DOT = .6008E-4
MEAN_MOTION_DDOT = 0

CCSDS_OMM_VERS = 2.0
CREATION_DATE  = 
ORIGINATOR     = 

OBJECT_NAME    = 2026-027D
OBJECT_ID      = 2026-027D
CENTER_NAME    = EARTH
REF_FRAME      = TEME
TIME_SYSTEM    = UTC
MEAN_ELEMENT_THEORY = SGP/SGP4

EPOCH          = 2026-02-19T12:03:19.095840
MEAN_MOTION    = 15.17733190
ECCENTRICITY   = .000965
INCLINATION    = 97.4886
RA_OF_ASC_NODE = 179.7197
ARG_OF_PERICENTER = 272.4505
MEAN_ANOMALY   = 87.5624

EPHEMERIS_TYPE = 0
CLASSIFICATION_TYPE = U
NORAD_CAT_ID   = 67749
ELEMENT_SET_NO = 999
REV_AT_EPOCH   = 105
BSTAR          = .48374E-3
MEAN_MOTION_DOT = .9709E-4
MEAN_MOTION_DDOT = 0

CCSDS_OMM_VERS = 2.0
CREATION_DATE  = 
ORIGINATOR     = 

OBJECT_NAME    = 2026-027E
OBJECT_ID      = 2026-027E
CENTER_NAME    = EARTH
REF_FRAME      = TEME
TIME_SYSTEM    = UTC
MEAN_ELEMENT_THEORY = SGP/SGP4

EPOCH          = 2026-02-19T12:03:14.000832
MEAN_MOTION    = 15.17737858
ECCENTRICITY   = .0008782
INCLINATION    = 97.4896
RA_OF_ASC_NODE = 179.7209
ARG_OF_PERICENTER = 274.3150
MEAN_ANOMALY   = 85.7080

EPHEMERIS_TYPE = 0
CLASSIFICATION_TYPE = U
NORAD_CAT_ID   = 67750
ELEMENT_SET_NO = 999
REV_AT_EPOCH   = 110
BSTAR          = .4197E-3
MEAN_MOTION_DOT = .8413E-4
MEAN_MOTION_DDOT = 0

CCSDS_OMM_VERS = 2.0
CREATION_DATE  = 
ORIGINATOR     = 

OBJECT_NAME    = 2026-027F
OBJECT_ID      = 2026-027F
CENTER_NAME    = EARTH
REF_FRAME      = TEME
TIME_SYSTEM    = UTC
MEAN_ELEMENT_THEORY = SGP/SGP4

EPOCH          = 2026-02-19T12:02:47.718816
MEAN_MOTION    = 15.17841321
ECCENTRICITY   = .0009942
INCLINATION    = 97.4898
RA_OF_ASC_NODE = 179.7216
ARG_OF_PERICENTER = 273.2736
MEAN_ANOMALY   = 86.7360

EPHEMERIS_TYPE = 0
CLASSIFICATION_TYPE = U
NORAD_CAT_ID   = 67751
ELEMENT_SET_NO = 999
REV_AT_EPOCH   = 110
BSTAR          = .67346E-3
MEAN_MOTION_DOT = .13594E-3
MEAN_MOTION_DDOT = 0

CCSDS_OMM_VERS = 2.0
CREATION_DATE  = 
ORIGINATOR     = 

OBJECT_NAME    = 2026-027G
OBJECT_ID      = 2026-027G
CENTER_NAME    = EARTH
REF_FRAME      = TEME
TIME_SYSTEM    = UTC
MEAN_ELEMENT_THEORY = SGP/SGP4

EPOCH          = 2026-02-19T12:02:39.452928
MEAN_MOTION    = 15.17826130
ECCENTRICITY   = .0009115
INCLINATION    = 97.4891
RA_OF_ASC_NODE = 179.7209
ARG_OF_PERICENTER = 276.3153
MEAN_ANOMALY   = 83.7043

EPHEMERIS_TYPE = 0
CLASSIFICATION_TYPE = U
NORAD_CAT_ID   = 67752
ELEMENT_SET_NO = 999
REV_AT_EPOCH   = 110
BSTAR          = .44777E-3
MEAN_MOTION_DOT = .9004E-4
MEAN_MOTION_DDOT = 0

